[{"OBJECT_NAME":"STARLINK-31640","OBJECT_ID":"2024-090U","EPOCH":"2025-10-03T06:22:35.457888","MEAN_MOTION":15.27577399,"ECCENTRICITY":2.015e-5,"INCLINATION":43.0005,"RA_OF_ASC_NODE":352.5862,"ARG_OF_PERICENTER":292.0632,"MEAN_ANOMALY":68.0199,"EPHEMERIS_TYPE":0,"CLASSIFICATION_TYPE":"U","NORAD_CAT_ID":59748,"ELEMENT_SET_NO":999,"REV_AT_EPOCH":7936,"BSTAR":-0.00061396345,"MEAN_MOTION_DOT":-0.00017116,"MEAN_MOTION_DDOT":0},{"OBJECT_NAME":"STARLINK-31677","OBJECT_ID":"2024-090V","EPOCH":"2025-10-03T05:12:28.792224","MEAN_MOTION":15.27589063,"ECCENTRICITY":0.00012842,"INCLINATION":43.0038,"RA_OF_ASC_NODE":353.0823,"ARG_OF_PERICENTER":277.6279,"MEAN_ANOMALY":82.4427,"EPHEMERIS_TYPE":0,"CLASSIFICATION_TYPE":"U","NORAD_CAT_ID":59749,"ELEMENT_SET_NO":999,"REV_AT_EPOCH":7934,"BSTAR":9.9351733e-5,"MEAN_MOTION_DOT":2.473e-5,"MEAN_MOTION_DDOT":0},{"OBJECT_NAME":"STARLINK-31783","OBJECT_ID":"2024-090W","EPOCH":"2025-10-03T06:57:45.057312","MEAN_MOTION":15.27573344,"ECCENTRICITY":0.00017164,"INCLINATION":43.0008,"RA_OF_ASC_NODE":352.7719,"ARG_OF_PERICENTER":269.5167,"MEAN_ANOMALY":90.5488,"EPHEMERIS_TYPE":0,"CLASSIFICATION_TYPE":"U","NORAD_CAT_ID":59750,"ELEMENT_SET_NO":999,"REV_AT_EPOCH":7935,"BSTAR":-0.00025498968,"MEAN_MOTION_DOT":-7.271e-5,"MEAN_MOTION_DDOT":0},{"OBJECT_NAME":"STARLINK-31808","OBJECT_ID":"2024-090X","EPOCH":"2025-10-03T05:32:39.195744","MEAN_MOTION":15.27560338,"ECCENTRICITY":0.00013733,"INCLINATION":43.0035,"RA_OF_ASC_NODE":352.3318,"ARG_OF_PERICENTER":261.0789,"MEAN_ANOMALY":98.9907,"EPHEMERIS_TYPE":0,"CLASSIFICATION_TYPE":"U","NORAD_CAT_ID":59751,"ELEMENT_SET_NO":999,"REV_AT_EPOCH":7935,"BSTAR":5.1174714e-5,"MEAN_MOTION_DOT":1.145e-5,"MEAN_MOTION_DDOT":0},{"OBJECT_NAME":"STARLINK-31822","OBJECT_ID":"2024-090Y","EPOCH":"2025-10-03T06:04:04.185408","MEAN_MOTION":15.27587042,"ECCENTRICITY":0.00016756,"INCLINATION":43.0021,"RA_OF_ASC_NODE":352.4935,"ARG_OF_PERICENTER":265.5794,"MEAN_ANOMALY":94.4866,"EPHEMERIS_TYPE":0,"CLASSIFICATION_TYPE":"U","NORAD_CAT_ID":59752,"ELEMENT_SET_NO":999,"REV_AT_EPOCH":7935,"BSTAR":0.00011254318,"MEAN_MOTION_DOT":2.837e-5,"MEAN_MOTION_DDOT":0},{"OBJECT_NAME":"STARLINK-11118 [DTC]","OBJECT_ID":"2024-091B","EPOCH":"2025-10-03T06:23:06.128160","MEAN_MOTION":15.69690606,"ECCENTRICITY":0.00019669,"INCLINATION":53.1579,"RA_OF_ASC_NODE":262.6384,"ARG_OF_PERICENTER":36.1972,"MEAN_ANOMALY":323.9179,"EPHEMERIS_TYPE":0,"CLASSIFICATION_TYPE":"U","NORAD_CAT_ID":59754,"ELEMENT_SET_NO":999,"REV_AT_EPOCH":8078,"BSTAR":-1.3910112e-5,"MEAN_MOTION_DOT":-2.273e-5,"MEAN_MOTION_DDOT":0},{"OBJECT_NAME":"STARLINK-11132 [DTC]","OBJECT_ID":"2024-091C","EPOCH":"2025-10-03T04:37:17.177088","MEAN_MOTION":15.69696948,"ECCENTRICITY":0.0001482,"INCLINATION":53.159,"RA_OF_ASC_NODE":262.8878,"ARG_OF_PERICENTER":105.5289,"MEAN_ANOMALY":254.5892,"EPHEMERIS_TYPE":0,"CLASSIFICATION_TYPE":"U","NORAD_CAT_ID":59755,"ELEMENT_SET_NO":999,"REV_AT_EPOCH":8077,"BSTAR":-4.249561e-6,"MEAN_MOTION_DOT":-1.104e-5,"MEAN_MOTION_DDOT":0},{"OBJECT_NAME":"STARLINK-11131 [DTC]","OBJECT_ID":"2024-091D","EPOCH":"2025-10-03T06:01:53.760288","MEAN_MOTION":15.69708661,"ECCENTRICITY":0.00011188,"INCLINATION":53.1582,"RA_OF_ASC_NODE":262.5436,"ARG_OF_PERICENTER":91.6981,"MEAN_ANOMALY":268.4165,"EPHEMERIS_TYPE":0,"CLASSIFICATION_TYPE":"U","NORAD_CAT_ID":59756,"ELEMENT_SET_NO":999,"REV_AT_EPOCH":8078,"BSTAR":-2.2260681e-5,"MEAN_MOTION_DOT":-3.284e-5,"MEAN_MOTION_DDOT":0},{"OBJECT_NAME":"STARLINK-11114 [DTC]","OBJECT_ID":"2024-091E","EPOCH":"2025-10-03T05:54:50.452128","MEAN_MOTION":15.69700828,"ECCENTRICITY":0.00010479,"INCLINATION":53.159,"RA_OF_ASC_NODE":262.5315,"ARG_OF_PERICENTER":79.3169,"MEAN_ANOMALY":280.7967,"EPHEMERIS_TYPE":0,"CLASSIFICATION_TYPE":"U","NORAD_CAT_ID":59757,"ELEMENT_SET_NO":999,"REV_AT_EPOCH":8078,"BSTAR":1.8129098e-5,"MEAN_MOTION_DOT":1.607e-5,"MEAN_MOTION_DDOT":0},{"OBJECT_NAME":"STARLINK-11105 [DTC]","OBJECT_ID":"2024-091F","EPOCH":"2025-10-03T05:47:45.955968","MEAN_MOTION":15.69707288,"ECCENTRICITY":9.317e-5,"INCLINATION":53.1583,"RA_OF_ASC_NODE":262.4946,"ARG_OF_PERICENTER":85.514,"MEAN_ANOMALY":274.5984,"EPHEMERIS_TYPE":0,"CLASSIFICATION_TYPE":"U","NORAD_CAT_ID":59758,"ELEMENT_SET_NO":999,"REV_AT_EPOCH":8078,"BSTAR":1.270055e-5,"MEAN_MOTION_DOT":9.5e-6,"MEAN_MOTION_DDOT":0},{"OBJECT_NAME":"STARLINK-11097 [DTC]","OBJECT_ID":"2024-091G","EPOCH":"2025-10-03T05:40:42.441312","MEAN_MOTION":15.69703991,"ECCENTRICITY":0.00014281,"INCLINATION":53.1585,"RA_OF_ASC_NODE":262.4416,"ARG_OF_PERICENTER":101.4876,"MEAN_ANOMALY":258.6302,"EPHEMERIS_TYPE":0,"CLASSIFICATION_TYPE":"U","NORAD_CAT_ID":59759,"ELEMENT_SET_NO":999,"REV_AT_EPOCH":8078,"BSTAR":2.7538187e-5,"MEAN_MOTION_DOT":2.747e-5,"MEAN_MOTION_DDOT":0},{"OBJECT_NAME":"STARLINK-11098 [DTC]","OBJECT_ID":"2024-091H","EPOCH":"2025-10-03T05:33:38.933568","MEAN_MOTION":15.69697622,"ECCENTRICITY":0.00013355,"INCLINATION":53.1588,"RA_OF_ASC_NODE":262.4104,"ARG_OF_PERICENTER":67.7664,"MEAN_ANOMALY":292.3495,"EPHEMERIS_TYPE":0,"CLASSIFICATION_TYPE":"U","NORAD_CAT_ID":59760,"ELEMENT_SET_NO":999,"REV_AT_EPOCH":8078,"BSTAR":-6.77098e-7,"MEAN_MOTION_DOT":-6.71e-6,"MEAN_MOTION_DDOT":0},{"OBJECT_NAME":"STARLINK-11117 [DTC]","OBJECT_ID":"2024-091J","EPOCH":"2025-10-03T05:26:35.188224","MEAN_MOTION":15.69689046,"ECCENTRICITY":0.00014826,"INCLINATION":53.1573,"RA_OF_ASC_NODE":262.3764,"ARG_OF_PERICENTER":74.239,"MEAN_ANOMALY":285.8791,"EPHEMERIS_TYPE":0,"CLASSIFICATION_TYPE":"U","NORAD_CAT_ID":59761,"ELEMENT_SET_NO":999,"REV_AT_EPOCH":8078,"BSTAR":-2.1138912e-5,"MEAN_MOTION_DOT":-3.147e-5,"MEAN_MOTION_DDOT":0},{"OBJECT_NAME":"STARLINK-11110 [DTC]","OBJECT_ID":"2024-091K","EPOCH":"2025-10-03T05:19:32.045952","MEAN_MOTION":15.6968167,"ECCENTRICITY":0.00017498,"INCLINATION":53.1594,"RA_OF_ASC_NODE":262.3439,"ARG_OF_PERICENTER":69.8449,"MEAN_ANOMALY":290.2757,"EPHEMERIS_TYPE":0,"CLASSIFICATION_TYPE":"U","NORAD_CAT_ID":59762,"ELEMENT_SET_NO":999,"REV_AT_EPOCH":8078,"BSTAR":-1.276918e-6,"MEAN_MOTION_DOT":-7.44e-6,"MEAN_MOTION_DDOT":0},{"OBJECT_NAME":"STARLINK-11104 [DTC]","OBJECT_ID":"2024-091L","EPOCH":"2025-10-03T05:12:26.527680","MEAN_MOTION":15.69710951,"ECCENTRICITY":0.00018235,"INCLINATION":53.1605,"RA_OF_ASC_NODE":262.3136,"ARG_OF_PERICENTER":107.7955,"MEAN_ANOMALY":252.3262,"EPHEMERIS_TYPE":0,"CLASSIFICATION_TYPE":"U","NORAD_CAT_ID":59763,"ELEMENT_SET_NO":999,"REV_AT_EPOCH":8078,"BSTAR":2.7663673e-5,"MEAN_MOTION_DOT":2.763e-5,"MEAN_MOTION_DDOT":0},{"OBJECT_NAME":"STARLINK-11111 [DTC]","OBJECT_ID":"2024-091M","EPOCH":"2025-10-03T06:30:01.498752","MEAN_MOTION":15.69672877,"ECCENTRICITY":0.00014902,"INCLINATION":53.1567,"RA_OF_ASC_NODE":261.9297,"ARG_OF_PERICENTER":70.7866,"MEAN_ANOMALY":289.3313,"EPHEMERIS_TYPE":0,"CLASSIFICATION_TYPE":"U","NORAD_CAT_ID":59764,"ELEMENT_SET_NO":999,"REV_AT_EPOCH":8079,"BSTAR":-3.6269532e-5,"MEAN_MOTION_DOT":-4.974e-5,"MEAN_MOTION_DDOT":0}]
