STARLINK-31640          
1 59748U 24090U   25276.26568817 -.00017116  00000+0 -61396-3 0  9998
2 59748  43.0005 352.5862 0000201 292.0632  68.0199 15.27577399 79368
STARLINK-31677          
1 59749U 24090V   25276.21699991  .00002473  00000+0  99352-4 0  9994
2 59749  43.0038 353.0823 0001284 277.6279  82.4427 15.27589063 79349
STARLINK-31783          
1 59750U 24090W   25276.29010483 -.00007271  00000+0 -25499-3 0  9990
2 59750  43.0008 352.7719 0001716 269.5167  90.5488 15.27573344 79357
STARLINK-31808          
1 59751U 24090X   25276.23100921  .00001145  00000+0  51175-4 0  9995
2 59751  43.0035 352.3318 0001373 261.0789  98.9907 15.27560338 79352
STARLINK-31822          
1 59752U 24090Y   25276.25282622  .00002837  00000+0  11254-3 0  9999
2 59752  43.0021 352.4935 0001675 265.5794  94.4866 15.27587042 79350
STARLINK-11118 [DTC]    
1 59754U 24091B   25276.26604315 -.00002273  00000+0 -13910-4 0  9998
2 59754  53.1579 262.6384 0001966  36.1972 323.9179 15.69690606 80788
STARLINK-11132 [DTC]    
1 59755U 24091C   25276.19255992 -.00001104  00000+0 -42496-5 0  9998
2 59755  53.1590 262.8878 0001482 105.5289 254.5892 15.69696948 80772
STARLINK-11131 [DTC]    
1 59756U 24091D   25276.25131667 -.00003284  00000+0 -22261-4 0  9996
2 59756  53.1582 262.5436 0001118  91.6981 268.4165 15.69708661 80785
STARLINK-11114 [DTC]    
1 59757U 24091E   25276.24641727  .00001607  00000+0  18129-4 0  9992
2 59757  53.1590 262.5315 0001047  79.3169 280.7967 15.69700828 80787
STARLINK-11105 [DTC]    
1 59758U 24091F   25276.24150412  .00000950  00000+0  12701-4 0  9999
2 59758  53.1583 262.4946 0000931  85.5140 274.5984 15.69707288 80785
STARLINK-11097 [DTC]    
1 59759U 24091G   25276.23660233  .00002747  00000+0  27538-4 0  9996
2 59759  53.1585 262.4416 0001428 101.4876 258.6302 15.69703991 80780
STARLINK-11098 [DTC]    
1 59760U 24091H   25276.23170062 -.00000671  00000+0 -67710-6 0  9998
2 59760  53.1588 262.4104 0001335  67.7664 292.3495 15.69697622 80786
STARLINK-11117 [DTC]    
1 59761U 24091J   25276.22679616 -.00003147  00000+0 -21139-4 0  9991
2 59761  53.1573 262.3764 0001482  74.2390 285.8791 15.69689046 80781
STARLINK-11110 [DTC]    
1 59762U 24091K   25276.22189868 -.00000744  00000+0 -12769-5 0  9997
2 59762  53.1594 262.3439 0001749  69.8449 290.2757 15.69681670 80782
STARLINK-11104 [DTC]    
1 59763U 24091L   25276.21697370  .00002763  00000+0  27664-4 0  9999
2 59763  53.1605 262.3136 0001823 107.7955 252.3262 15.69710951 80782
STARLINK-11111 [DTC]    
1 59764U 24091M   25276.27085068 -.00004974  00000+0 -36270-4 0  9992
2 59764  53.1567 261.9297 0001490  70.7866 289.3313 15.69672877 80795
